_id,ID,NAME,ADDRESS,ADDRESS_POINT_ID,ADDRESS_ID,CENTRELINE_ID,MAINT_STAGE,ADDRESS_NUMBER,LINEAR_NAME_FULL,POSTAL_CODE,GENERAL_USE,CLASS_FAMILY_DESC,ADDRESS_ID_LINK,PLACE_NAME,X,Y,LATITUDE,LONGITUDE,WARD_NAME,MUNICIPALITY_NAME,OBJECTID,geometry,lon,lat,geometry
1,21,FIRE STATION 211,900 TAPSCOTT RD,4236992,363382,4236991,REGULAR,900,Tapscott Rd,NA,Fire/Ambulance Stations,"Land, Structure, Structure Entrance",NA,"Fire Station 211, Ambulance Station 27",NA,NA,NA,NA,Scarborough North (23),Scarborough,1520443,"c(-79.2428700353868, 43.8239927252015)",-79.2428700353868,43.8239927252015,"c(-79.2428700353868, 43.8239927252015)"
2,60,FIRE STATION 342,106 ASCOT AVE,764237,70190,1140634,REGULAR,106,Ascot Ave,NA,Fire Station,"Land, Structure, Structure Entrance",NA,Fire Station 342,NA,NA,NA,NA,Davenport (9),former Toronto,1541526,"c(-79.4486262604651, 43.6793661319391)",-79.4486262604651,43.6793661319391,"c(-79.4486262604651, 43.6793661319391)"
3,61,FIRE STATION 343,65 HENDRICK AVE,819425,127148,1140587,REGULAR,65,Hendrick Ave,NA,Fire Station,"Land, Structure, Structure Entrance",NA,Fire Station 343,NA,NA,NA,NA,Toronto-St. Paul's (12),former Toronto,1543317,"c(-79.4307521572934, 43.6801051517752)",-79.4307521572934,43.6801051517752,"c(-79.4307521572934, 43.6801051517752)"
4,55,FIRE STATION 332,260 ADELAIDE ST W,12763904,484214,12763900,REGULAR,260,Adelaide St W,NA,Fire Station,"Land, Structure, Structure Entrance",NA,Fire Station 332 & South Command Offc,NA,NA,NA,NA,Spadina-Fort York (10),former Toronto,1558261,"c(-79.3895641902632, 43.6483065339531)",-79.3895641902632,43.6483065339531,"c(-79.3895641902632, 43.6483065339531)"
5,24,FIRE STATION 214,745 MEADOWVALE RD,6349868,357277,6349869,REGULAR,745,Meadowvale Rd,NA,Fire Station,"Land, Structure, Structure Entrance",NA,Fire Station 214,NA,NA,NA,NA,Scarborough-Rouge Park (25),Scarborough,1567567,"c(-79.1636016041726, 43.7942107669436)",-79.1636016041726,43.7942107669436,"c(-79.1636016041726, 43.7942107669436)"
6,74,FIRE STATION 426,140 LANSDOWNE AVE,10757599,157562,14674741,REGULAR,140,Lansdowne Ave,NA,Fire Station,"Land, Structure, Structure Entrance",NA,Fire Station 426,NA,NA,NA,NA,Parkdale-High Park (4),former Toronto,1578612,"c(-79.438866712795, 43.6450864408435)",-79.438866712795,43.6450864408435,"c(-79.438866712795, 43.6450864408435)"
7,70,FIRE STATION 422,590 JANE ST,7027887,48627,20004277,REGULAR,590,Jane St,NA,Fire/Ambulance Stations,"Land, Structure, Structure Entrance",NA,"Fire Station 422, Ambulance Station 31N",NA,NA,NA,NA,Parkdale-High Park (4),York,1605282,"c(-79.4909411711192, 43.6644021870805)",-79.4909411711192,43.6644021870805,"c(-79.4909411711192, 43.6644021870805)"
8,34,FIRE STATION 232,1550 MIDLAND AVE,2820826,299783,2820380,REGULAR,1550,Midland Ave,NA,Fire Station,"Land, Structure, Structure Entrance",NA,Fire Station 232,NA,NA,NA,NA,Scarborough Centre (21),Scarborough,1657015,"c(-79.2668510713279, 43.7549669455776)",-79.2668510713279,43.7549669455776,"c(-79.2668510713279, 43.7549669455776)"
9,7,FIRE STATION 121,10 WILLIAM CARSON CRES,4792285,416944,13971133,REGULAR,10,William Carson Cres,NA,Fire Station,"Land, Structure, Structure Entrance",NA,Fire Station 121,NA,NA,NA,NA,Don Valley West (15),North York,1662173,"c(-79.4067807494981, 43.7485400772289)",-79.4067807494981,43.7485400772289,"c(-79.4067807494981, 43.7485400772289)"
10,66,FIRE STATION 412,267 HUMBERLINE DR,7063061,473220,7063044,REGULAR,267,Humberline Dr,NA,Fire Station,"Land, Structure, Structure Entrance",NA,Fire Station 412,NA,NA,NA,NA,Etobicoke North (1),Etobicoke,1662239,"c(-79.6176378075318, 43.7381082893591)",-79.6176378075318,43.7381082893591,"c(-79.6176378075318, 43.7381082893591)"
11,14,FIRE STATION 134,16 MONTGOMERY AVE,843876,106325,1138230,REGULAR,16,Montgomery Ave,NA,Fire Station,"Land, Structure, Structure Entrance",NA,Fire Station 134,NA,NA,NA,NA,Eglinton-Lawrence (8),former Toronto,1662464,"c(-79.3997683018787, 43.7096567595102)",-79.3997683018787,43.7096567595102,"c(-79.3997683018787, 43.7096567595102)"
12,46,FIRE STATION 314,12 GROSVENOR ST,7762642,1460311,14673186,REGULAR,12,Grosvenor St,NA,Fire Station,"Structure, Structure Entrance",155719,Fire Station 314,NA,NA,NA,NA,Toronto Centre (13),former Toronto,1669763,"c(-79.3846617684612, 43.6630574201831)",-79.3846617684612,43.6630574201831,"c(-79.3846617684612, 43.6630574201831)"
13,54,FIRE STATION 331,33 CLAREMONT ST,6522583,152968,1146109,REGULAR,33,Claremont St,NA,Fire Station,"Land, Structure, Structure Entrance",NA,Fire Station 331,NA,NA,NA,NA,Spadina-Fort York (10),former Toronto,1701571,"c(-79.4097737524017, 43.6473361193742)",-79.4097737524017,43.6473361193742,"c(-79.4097737524017, 43.6473361193742)"
14,5,FIRE STATION 115,115 PARKWAY FOREST DR,8823994,286309,8823988,REGULAR,115,Parkway Forest Dr,NA,Fire/Ambulance Stations,"Land, Structure, Structure Entrance",NA,"Fire Station 115, Ambulance Station 23",NA,NA,NA,NA,Don Valley North (17),North York,1783376,"c(-79.340686070112, 43.7744035511644)",-79.340686070112,43.7744035511644,"c(-79.340686070112, 43.7744035511644)"
15,12,FIRE STATION 132,476 LAWRENCE AVE W,9847351,100477,9694792,REGULAR,476,Lawrence Ave W,NA,Fire Station,"Land, Structure, Structure Entrance",NA,Fire Station 132,NA,NA,NA,NA,Eglinton-Lawrence (8),North York,1852933,"c(-79.4285718669271, 43.7197981433383)",-79.4285718669271,43.7197981433383,"c(-79.4285718669271, 43.7197981433383)"
16,77,FIRE STATION 433,615 ROYAL YORK RD,10142756,181271,10142758,REGULAR,615,Royal York Rd,NA,Fire Station,"Land, Structure, Structure Entrance",NA,Fire Station 433,NA,NA,NA,NA,Etobicoke-Lakeshore (3),Etobicoke,1918334,"c(-79.5029381693498, 43.6280185381182)",-79.5029381693498,43.6280185381182,"c(-79.5029381693498, 43.6280185381182)"
17,80,FIRE STATION 441,947 MARTIN GROVE RD,6044964,22707,6044958,REGULAR,947,Martin Grove Rd,NA,Fire Station,"Land, Structure, Structure Entrance",NA,Fire Station 441,NA,NA,NA,NA,Etobicoke North (1),Etobicoke,1959089,"c(-79.5719196489125, 43.6949604663995)",-79.5719196489125,43.6949604663995,"c(-79.5719196489125, 43.6949604663995)"
18,59,FIRE STATION 341,555 OAKWOOD AVE,69771,96972,7809,REGULAR,555,Oakwood Ave,NA,Fire Station,"Land, Structure, Structure Entrance",NA,Fire Station 341,NA,NA,NA,NA,Toronto-St. Paul's (12),York,1961768,"c(-79.4411405905638, 43.6945203032832)",-79.4411405905638,43.6945203032832,"c(-79.4411405905638, 43.6945203032832)"
19,78,FIRE STATION 434,3 LUNNESS RD,6738444,1406,6738419,REGULAR,3,Lunness Rd,NA,Fire/Ambulance Stations,"Land, Structure, Structure Entrance",NA,"Fire Station 434, Ambulance Station 38N",NA,NA,NA,NA,Etobicoke-Lakeshore (3),Etobicoke,1977909,"c(-79.5439889406404, 43.6025703358919)",-79.5439889406404,43.6025703358919,"c(-79.5439889406404, 43.6025703358919)"
20,43,FIRE STATION 311,20 BALMORAL AVE,8741293,116679,20062243,REGULAR,20,Balmoral Ave,NA,Fire Station,"Land, Structure, Structure Entrance",NA,Fire Station 311,NA,NA,NA,NA,Toronto-St. Paul's (12),former Toronto,1995083,"c(-79.3939758413006, 43.6859508063859)",-79.3939758413006,43.6859508063859,"c(-79.3939758413006, 43.6859508063859)"
21,50,FIRE STATION 323,153 CHATHAM AVE,8837366,226454,20080084,REGULAR,153,Chatham Ave,NA,Fire/Ambulance Stations,"Land, Structure, Structure Entrance",NA,"Fire Station 323, Ambulance Station 4",NA,NA,NA,NA,Toronto-Danforth (14),former Toronto,2004250,"c(-79.3346621153039, 43.6795428878229)",-79.3346621153039,43.6795428878229,"c(-79.3346621153039, 43.6795428878229)"
22,36,FIRE STATION 234,40 CORONATION DR,2219446,338580,2219434,REGULAR,40,Coronation Dr,NA,Fire Station,"Land, Structure, Structure Entrance",NA,Fire Station 234,NA,NA,NA,NA,Scarborough-Guildwood (24),Scarborough,2004920,"c(-79.1915220291274, 43.7610681663423)",-79.1915220291274,43.7610681663423,"c(-79.1915220291274, 43.7610681663423)"
23,79,FIRE STATION 435,130 EIGHTH ST,998837,187175,20048251,REGULAR,130,Eighth St,NA,Fire Station,"Land, Structure, Structure Entrance",NA,Fire Station 435,NA,NA,NA,NA,Etobicoke-Lakeshore (3),Etobicoke,2012378,"c(-79.5069699933954, 43.6011185170765)",-79.5069699933954,43.6011185170765,"c(-79.5069699933954, 43.6011185170765)"
24,72,FIRE STATION 424,462 RUNNYMEDE RD,7985900,55504,7985886,REGULAR,462,Runnymede Rd,NA,Fire Station,"Land, Structure, Structure Entrance",NA,Fire Station 424,NA,NA,NA,NA,Parkdale-High Park (4),former Toronto,2025112,"c(-79.4796294010287, 43.6583545553016)",-79.4796294010287,43.6583545553016,"c(-79.4796294010287, 43.6583545553016)"
25,26,FIRE STATION 221,2575 EGLINTON AVE E,330710,317332,111065,REGULAR,2575,Eglinton Ave E,NA,Restaurant,"Land, Structure, Structure Entrance",NA,NA,NA,NA,NA,NA,Scarborough Southwest (20),Scarborough,2048861,"c(-79.2550627035035, 43.7347901432983)",-79.2550627035035,43.7347901432983,"c(-79.2550627035035, 43.7347901432983)"
26,29,FIRE STATION 224,1313 WOODBINE AVE,6620011,262674,6620012,REGULAR,1313,Woodbine Ave,NA,Fire Station,"Land, Structure, Structure Entrance",NA,Fire Station 224,NA,NA,NA,NA,Beaches-East York (19),East York,2062647,"c(-79.3165970101621, 43.6951874596139)",-79.3165970101621,43.6951874596139,"c(-79.3165970101621, 43.6951874596139)"
27,41,FIRE STATION 244,2340 BIRCHMOUNT RD,4570660,295586,4570662,REGULAR,2340,Birchmount Rd,NA,Fire Station,"Land, Structure, Structure Entrance",NA,Fire Station 244,NA,NA,NA,NA,Scarborough-Agincourt (22),Scarborough,2063805,"c(-79.299115316238, 43.7816824952506)",-79.299115316238,43.7816824952506,"c(-79.299115316238, 43.7816824952506)"
28,31,FIRE STATION 226,87 MAIN ST,6294642,215086,1140025,REGULAR,87,Main St,NA,Fire Station,"Land, Structure, Structure Entrance",NA,Fire Station 226,NA,NA,NA,NA,Beaches-East York (19),former Toronto,2080935,"c(-79.2990652659353, 43.6819233409924)",-79.2990652659353,43.6819233409924,"c(-79.2990652659353, 43.6819233409924)"
29,9,FIRE STATION 123,143 BOND AVE,11541989,276675,11541986,REGULAR,143,Bond Ave,NA,Fire Station,"Land, Structure, Structure Entrance",NA,Fire Station 123,NA,NA,NA,NA,Don Valley East (16),North York,2108616,"c(-79.346726033251, 43.7458140063562)",-79.346726033251,43.7458140063562,"c(-79.346726033251, 43.7458140063562)"
30,11,FIRE STATION 131,3135 YONGE ST,7785457,420576,7785453,REGULAR,3135,Yonge St,NA,Fire Station,"Land, Structure, Structure Entrance",NA,Fire Station 131,NA,NA,NA,NA,Don Valley West (15),former Toronto,2119715,"c(-79.4021572823979, 43.7262170049856)",-79.4021572823979,43.7262170049856,"c(-79.4021572823979, 43.7262170049856)"
31,28,FIRE STATION 223,116 DORSET RD,9486826,316015,14666179,REGULAR,116,Dorset Rd,NA,Fire Station,"Land, Structure, Structure Entrance",NA,Fire Station 223,NA,NA,NA,NA,Scarborough Southwest (20),Scarborough,2172861,"c(-79.2332610776553, 43.7239567617954)",-79.2332610776553,43.7239567617954,"c(-79.2332610776553, 43.7239567617954)"
32,33,FIRE STATION 231,740 MARKHAM RD,8714126,344653,8714123,REGULAR,740,Markham Rd,NA,Fire Station,"Land, Structure, Structure Entrance",NA,Fire Station 231,NA,NA,NA,NA,Scarborough-Guildwood (24),Scarborough,2175731,"c(-79.2277876628423, 43.7646440088669)",-79.2277876628423,43.7646440088669,"c(-79.2277876628423, 43.7646440088669)"
33,44,FIRE STATION 312,34 YORKVILLE AVE,8677247,125045,14014191,REGULAR,34,Yorkville Ave,NA,Fire Station,"Land, Structure, Structure Entrance",NA,Fire Station 312,NA,NA,NA,NA,University-Rosedale (11),former Toronto,2224532,"c(-79.3889203795552, 43.6718748612736)",-79.3889203795552,43.6718748612736,"c(-79.3889203795552, 43.6718748612736)"
34,40,FIRE STATION 243,4560 SHEPPARD AVE E,4840624,484827,4840625,REGULAR,4560,Sheppard Ave E,NA,Fire/Ambulance Stations,"Land, Structure, Structure Entrance",NA,"Fire Station 243, Ambulance Station 29",NA,NA,NA,NA,Scarborough North (23),Scarborough,2236216,"c(-79.2629602053098, 43.7891369171176)",-79.2629602053098,43.7891369171176,"c(-79.2629602053098, 43.7891369171176)"
35,83,FIRE STATION 444,666 RENFORTH DR,1027149,24765,910843,REGULAR,666,Renforth Dr,NA,Fire Station,"Land, Structure, Structure Entrance",NA,Fire Station 444,NA,NA,NA,NA,Etobicoke Centre (2),Etobicoke,2238015,"c(-79.5826959880308, 43.6574667398934)",-79.5826959880308,43.6574667398934,"c(-79.5826959880308, 43.6574667398934)"
36,25,FIRE STATION 215,5318 LAWRENCE AVE E,354673,327448,107237,REGULAR,5318,Lawrence Ave E,NA,Fire Station,"Land, Structure, Structure Entrance",NA,Fire Station 215,NA,NA,NA,NA,Scarborough-Rouge Park (25),Scarborough,2250005,"c(-79.1480658922187, 43.7773919350636)",-79.1480658922187,43.7773919350636,"c(-79.1480658922187, 43.7773919350636)"
37,71,FIRE STATION 423,358 KEELE ST,7583839,66462,14014794,REGULAR,358,Keele St,NA,Fire Station,"Land, Structure, Structure Entrance",NA,Fire Station 423,NA,NA,NA,NA,Parkdale-High Park (4),former Toronto,2286011,"c(-79.4647539608107, 43.6647417825914)",-79.4647539608107,43.6647417825914,"c(-79.4647539608107, 43.6647417825914)"
38,22,FIRE STATION 212,8500 SHEPPARD AVE E,20110476,483764,104501,REGULAR,8500,Sheppard Ave E,NA,Fire/Ambulance Stations,"Land, Structure, Structure Entrance",NA,"Fire Station 212, Ambulance Station 25",NA,NA,NA,NA,Scarborough-Rouge Park (25),Scarborough,2303629,"c(-79.1886200061229, 43.8049322415793)",-79.1886200061229,43.8049322415793,"c(-79.1886200061229, 43.8049322415793)"
39,32,FIRE STATION 227,1904 QUEEN ST E,9980187,213587,9980168,REGULAR,1904,Queen St E,NA,Fire Station,"Land, Structure, Structure Entrance",NA,Fire Station 227,NA,NA,NA,NA,Beaches-East York (19),former Toronto,2309211,"c(-79.3050381995295, 43.6691630088656)",-79.3050381995295,43.6691630088656,"c(-79.3050381995295, 43.6691630088656)"
40,27,FIRE STATION 222,755 WARDEN AVE,2374883,195873,8741020,REGULAR,755,Warden Ave,NA,Fire Station,"Land, Structure, Structure Entrance",NA,Fire Station 222,NA,NA,NA,NA,Scarborough Southwest (20),Scarborough,2449586,"c(-79.2840906320077, 43.7203994274282)",-79.2840906320077,43.7203994274282,"c(-79.2840906320077, 43.7203994274282)"
41,49,FIRE STATION 322,256 COSBURN AVE,19832,256667,14646506,REGULAR,256,Cosburn Ave,NA,Fire Station,"Land, Structure, Structure Entrance",NA,Fire Station 322,NA,NA,NA,NA,Toronto-Danforth (14),East York,2455220,"c(-79.3423437199078, 43.6909861622398)",-79.3423437199078,43.6909861622398,"c(-79.3423437199078, 43.6909861622398)"
42,23,FIRE STATION 213,7 LAPSLEY RD,11533910,346466,11533909,REGULAR,7,Lapsley Rd,NA,Fire Station,"Land, Structure, Structure Entrance",NA,Fire Station 213,NA,NA,NA,NA,Scarborough North (23),Scarborough,2458686,"c(-79.2259619086159, 43.7954066088734)",-79.2259619086159,43.7954066088734,"c(-79.2259619086159, 43.7954066088734)"
43,48,FIRE STATION 321,231 MCRAE DR,3890947,269726,3890945,REGULAR,231,McRae Dr,NA,Fire Station,"Land, Structure, Structure Entrance",NA,Fire Station 321,NA,NA,NA,NA,Don Valley West (15),East York,2479820,"c(-79.3648513993097, 43.7087098623636)",-79.3648513993097,43.7087098623636,"c(-79.3648513993097, 43.7087098623636)"
44,84,FIRE STATION 445,280 BURNHAMTHORPE RD,990940,17956,911274,REGULAR,280,Burnhamthorpe Rd,NA,Fire Station,"Land, Structure, Structure Entrance",NA,Fire Station 445,NA,NA,NA,NA,Etobicoke Centre (2),Etobicoke,2544120,"c(-79.5451030832103, 43.649348178119)",-79.5451030832103,43.649348178119,"c(-79.5451030832103, 43.649348178119)"
45,67,FIRE STATION 413,1549 ALBION RD,982440,468063,906946,REGULAR,1549,Albion Rd,NA,Fire Station,"Land, Structure, Structure Entrance",NA,Fire Station 413,NA,NA,NA,NA,Etobicoke North (1),Etobicoke,2546874,"c(-79.5869058522884, 43.7402187055703)",-79.5869058522884,43.7402187055703,"c(-79.5869058522884, 43.7402187055703)"
46,6,FIRE STATION 116,255 ESTHER SHINER BLVD,8731578,1464220,30005958,REGULAR,255,Esther Shiner Blvd,NA,Fire Station,"Structure, Structure Entrance",484876,Fire Station 116,NA,NA,NA,NA,Don Valley North (17),North York,2607109,"c(-79.3650636554859, 43.7691459436276)",-79.3650636554859,43.7691459436276,"c(-79.3650636554859, 43.7691459436276)"
47,76,FIRE STATION 432,155 THE EAST MALL,8100063,6586,8100062,REGULAR,155,The East Mall,NA,Fire/Ambulance Stations,"Land, Structure, Structure Entrance",NA,"Fire Station 432, Ambulance Station 39",NA,NA,NA,NA,Etobicoke-Lakeshore (3),Etobicoke,2609714,"c(-79.5493536952449, 43.6233410114915)",-79.5493536952449,43.6233410114915,"c(-79.5493536952449, 43.6233410114915)"
48,30,FIRE STATION 225,3600 DANFORTH AVE,5464019,204590,5464008,REGULAR,3600,Danforth Ave,NA,Fire Station,"Land, Structure, Structure Entrance",NA,Fire Station 225,NA,NA,NA,NA,Scarborough Southwest (20),Scarborough,2642292,"c(-79.2684946045652, 43.6959168731747)",-79.2684946045652,43.6959168731747,"c(-79.2684946045652, 43.6959168731747)"
49,75,FIRE STATION 431,308 PRINCE EDWARD DR S,6942838,173065,6942837,REGULAR,308,Prince Edward Dr S,NA,Fire Station,"Land, Structure, Structure Entrance",NA,Fire Station 431,NA,NA,NA,NA,Etobicoke-Lakeshore (3),Etobicoke,2663266,"c(-79.5048470438209, 43.6464360660255)",-79.5048470438209,43.6464360660255,"c(-79.5048470438209, 43.6464360660255)"
50,68,FIRE STATION 415,2120 KIPLING AVE,9655766,28505,9655751,REGULAR,2120,Kipling Ave,NA,Fire Station,"Land, Structure, Structure Entrance",NA,Fire Station 415,NA,NA,NA,NA,Etobicoke North (1),Etobicoke,2750607,"c(-79.5703767704744, 43.7178772080563)",-79.5703767704744,43.7178772080563,"c(-79.5703767704744, 43.7178772080563)"
51,3,FIRE STATION 113,700 SENECA HILL DR,560567,389732,436832,REGULAR,700,Seneca Hill Dr,NA,Fire Station,"Land, Structure, Structure Entrance",NA,Fire Station 113,NA,NA,NA,NA,Don Valley North (17),North York,2788036,"c(-79.3508330020753, 43.7931779343076)",-79.3508330020753,43.7931779343076,"c(-79.3508330020753, 43.7931779343076)"
52,13,FIRE STATION 133,1505 LAWRENCE AVE W,20035267,1463915,9796670,REGULAR,1505,Lawrence Ave W,NA,Fire Station,"Structure, Structure Entrance",86391,Fire Station 133,NA,NA,NA,NA,York South-Weston (5),North York,2829802,"c(-79.4821848791484, 43.7071848570246)",-79.4821848791484,43.7071848570246,"c(-79.4821848791484, 43.7071848570246)"
53,73,FIRE STATION 425,83 DEFOREST RD,792196,175651,1146026,REGULAR,83,Deforest Rd,NA,Fire Station,"Land, Structure, Structure Entrance",NA,Fire Station 425,NA,NA,NA,NA,Parkdale-High Park (4),former Toronto,2943084,"c(-79.4780588288151, 43.6479870238738)",-79.4780588288151,43.6479870238738,"c(-79.4780588288151, 43.6479870238738)"
54,35,FIRE STATION 233,59 CURLEW DR,8292449,314198,8292440,REGULAR,59,Curlew Dr,NA,Fire Station,"Land, Structure, Structure Entrance",NA,Fire Station 233,NA,NA,NA,NA,Don Valley East (16),North York,2949111,"c(-79.3145201396869, 43.7441034788063)",-79.3145201396869,43.7441034788063,"c(-79.3145201396869, 43.7441034788063)"
55,69,FIRE STATION 421,6 LAMBTON AVE,9531843,77063,9531839,REGULAR,6,Lambton Ave,NA,Fire Station,"Land, Structure, Structure Entrance",NA,Fire Station 421,NA,NA,NA,NA,York South-Weston (5),York,2973435,"c(-79.4853016276853, 43.6843003946467)",-79.4853016276853,43.6843003946467,"c(-79.4853016276853, 43.6843003946467)"
56,10,FIRE STATION 125,1109 LESLIE ST,12491266,275510,30004027,REGULAR,1109,Leslie St,NA,Fire Station,"Land, Structure, Structure Entrance",NA,Fire Station 125,NA,NA,NA,NA,Don Valley East (16),North York,2981001,"c(-79.3491121871106, 43.721135794691)",-79.3491121871106,43.721135794691,"c(-79.3491121871106, 43.721135794691)"
57,17,FIRE STATION 142,2753 JANE ST,531061,461520,442012,REGULAR,2753,Jane St,NA,Fire/Ambulance Stations,"Land, Structure, Structure Entrance",NA,"Fire Station 142, Ambulance Station 15",NA,NA,NA,NA,Humber River-Black Creek (7),North York,2982185,"c(-79.5143706434163, 43.7459827062059)",-79.5143706434163,43.7459827062059,"c(-79.5143706434163, 43.7459827062059)"
58,62,FIRE STATION 344,240 HOWLAND AVE,7974292,121185,30017353,REGULAR,240,Howland Ave,NA,Fire Station,"Land, Structure, Structure Entrance",NA,Fire Station 344,NA,NA,NA,NA,University-Rosedale (11),former Toronto,2997539,"c(-79.4118241402967, 43.6729622271664)",-79.4118241402967,43.6729622271664,"c(-79.4118241402967, 43.6729622271664)"
59,47,FIRE STATION 315,132 BELLEVUE AVE,770042,149925,30017518,REGULAR,132,Bellevue Ave,NA,Fire Station,"Land, Structure, Structure Entrance",NA,Fire Station 315,NA,NA,NA,NA,University-Rosedale (11),former Toronto,3000730,"c(-79.4047817252783, 43.6568245964379)",-79.4047817252783,43.6568245964379,"c(-79.4047817252783, 43.6568245964379)"
60,53,FIRE STATION 326,30 KNOX AVE,14076681,1481088,30021411,REGULAR,30,Knox Ave,M4L 3W3,Fire Station,Structure Entrance,726017,Fire Station 326,NA,NA,NA,NA,Toronto-Danforth (14),former Toronto,3024003,"c(-79.3250072916157, 43.6615387594206)",-79.3250072916157,43.6615387594206,"c(-79.3250072916157, 43.6615387594206)"
61,52,FIRE STATION 325,475 DUNDAS ST E,6168242,249459,6168241,REGULAR,475,Dundas St E,NA,Fire Station,"Land, Structure, Structure Entrance",NA,Fire Station 325,NA,NA,NA,NA,Toronto Centre (13),former Toronto,3030229,"c(-79.3648542022226, 43.6593705340714)",-79.3648542022226,43.6593705340714,"c(-79.3648542022226, 43.6593705340714)"
62,82,FIRE STATION 443,1724 ISLINGTON AVE,1009102,38844,30023253,REGULAR,1724,Islington Ave,NA,Fire Station,"Land, Structure, Structure Entrance",NA,Fire Station 443,NA,NA,NA,NA,Etobicoke Centre (2),Etobicoke,3035181,"c(-79.5385536449026, 43.678071015543)",-79.5385536449026,43.678071015543,"c(-79.5385536449026, 43.678071015543)"
63,20,FIRE STATION 146,2220 JANE ST,4723662,458125,30006795,REGULAR,2220,Jane St,NA,Fire Station,"Land, Structure, Structure Entrance",NA,Fire Station 146,NA,NA,NA,NA,Humber River-Black Creek (7),North York,3072600,"c(-79.5097760967724, 43.7235728614792)",-79.5097760967724,43.7235728614792,"c(-79.5097760967724, 43.7235728614792)"
64,8,FIRE STATION 122,2545 BAYVIEW AVE,487657,420567,441346,REGULAR,2545,Bayview Ave,NA,Fire Station,"Land, Structure, Structure Entrance",NA,Fire Station 122,NA,NA,NA,NA,Don Valley West (15),North York,3074276,"c(-79.3837259589611, 43.7486446150086)",-79.3837259589611,43.7486446150086,"c(-79.3837259589611, 43.7486446150086)"
65,18,FIRE STATION 143,1009 SHEPPARD AVE W,9741247,440887,9741246,REGULAR,1009,Sheppard Ave W,NA,Fire Station,"Land, Structure, Structure Entrance",NA,Fire Station 143,NA,NA,NA,NA,York Centre (6),North York,3083829,"c(-79.4597267967044, 43.7506541444208)",-79.4597267967044,43.7506541444208,"c(-79.4597267967044, 43.7506541444208)"
66,42,FIRE STATION 245,1600 BIRCHMOUNT RD,308625,297681,108988,REGULAR,1600,Birchmount Rd,NA,Fire Station,"Land, Structure, Structure Entrance",NA,Fire Station 245,NA,NA,NA,NA,Scarborough Centre (21),Scarborough,3093030,"c(-79.2915184052647, 43.7626918218058)",-79.2915184052647,43.7626918218058,"c(-79.2915184052647, 43.7626918218058)"
67,56,FIRE STATION 333,207 FRONT ST E,6661414,1460804,1145261,REGULAR,207,Front St E,NA,Fire Station,"Structure, Structure Entrance",184651,Fire Station 333,NA,NA,NA,NA,Toronto Centre (13),former Toronto,3119337,"c(-79.3661539690352, 43.6505208079754)",-79.3661539690352,43.6505208079754,"c(-79.3661539690352, 43.6505208079754)"
68,38,FIRE STATION 241,3325 WARDEN AVE,396134,387652,14663726,REGULAR,3325,Warden Ave,NA,Fire Station,"Land, Structure, Structure Entrance",NA,Fire Station 241,NA,NA,NA,NA,Scarborough-Agincourt (22),Scarborough,3174616,"c(-79.3238025417745, 43.8140419797109)",-79.3238025417745,43.8140419797109,"c(-79.3238025417745, 43.8140419797109)"
69,19,FIRE STATION 145,20 BEFFORT RD,6275804,438727,6275627,REGULAR,20,Beffort Rd,NA,Fire Station,"Land, Structure, Structure Entrance",NA,Fire Station 145,NA,NA,NA,NA,York Centre (6),North York,3186765,"c(-79.4600322095888, 43.7347555131408)",-79.4600322095888,43.7347555131408,"c(-79.4600322095888, 43.7347555131408)"
70,37,FIRE STATION 235,200 BERMONDSEY RD,6686397,310729,6682365,REGULAR,200,Bermondsey Rd,NA,Fire Station,"Land, Structure, Structure Entrance",NA,Fire Station 235,NA,NA,NA,NA,Don Valley East (16),North York,3217085,"c(-79.3149344230792, 43.7242534211126)",-79.3149344230792,43.7242534211126,"c(-79.3149344230792, 43.7242534211126)"
71,81,FIRE STATION 442,2015 LAWRENCE AVE W,9796836,34953,9796835,REGULAR,2015,Lawrence Ave W,NA,Fire/Ambulance Stations,"Land, Structure, Structure Entrance",NA,"Fire Station 442, Ambulance Station 10",NA,NA,NA,NA,York South-Weston (5),York,3234576,"c(-79.5123844108684, 43.7005987011636)",-79.5123844108684,43.7005987011636,"c(-79.5123844108684, 43.7005987011636)"
72,65,FIRE STATION 411,75 TORYORK DR,13497504,938809,10367893,REGULAR,75,Toryork Dr,NA,Fire Station,"Structure, Structure Entrance",1524756,Fire Station 411,NA,NA,NA,NA,Humber River-Black Creek (7),North York,3301795,"c(-79.5491654346987, 43.7552582620875)",-79.5491654346987,43.7552582620875,"c(-79.5491654346987, 43.7552582620875)"
73,2,FIRE STATION 112,5700 BATHURST ST,9313399,413809,14661127,REGULAR,5700,Bathurst St,NA,Fire/Ambulance Stations,"Land, Structure, Structure Entrance",NA,"Fire Station 112, Ambulance Station 55",NA,NA,NA,NA,York Centre (6),North York,3311629,"c(-79.4442860463118, 43.7762855215206)",-79.4442860463118,43.7762855215206,"c(-79.4442860463118, 43.7762855215206)"
74,1,FIRE STATION 111,3300 BAYVIEW AVE,9602654,416759,20050112,REGULAR,3300,Bayview Ave,NA,Fire/Ambulance Stations,"Land, Structure, Structure Entrance",NA,"Fire Station 111, Ambulance Station 56",NA,NA,NA,NA,Willowdale (18),North York,3311708,"c(-79.3936558799114, 43.7901270072937)",-79.3936558799114,43.7901270072937,"c(-79.3936558799114, 43.7901270072937)"
75,4,FIRE STATION 114,12 CANTERBURY PL,13498086,414669,438636,REGULAR,12,Canterbury Pl,NA,Fire/Ambulance Stations,"Land, Structure, Structure Entrance",NA,"Fire Station 114, Ambulance Station 58",NA,NA,NA,NA,Willowdale (18),North York,3311726,"c(-79.4153547749349, 43.7726358500692)",-79.4153547749349,43.7726358500692,"c(-79.4153547749349, 43.7726358500692)"
76,39,FIRE STATION 242,2733 BRIMLEY RD,9487007,369709,30060358,REGULAR,2733,Brimley Rd,NA,Fire Station,"Land, Structure, Structure Entrance",NA,Fire Station 242,NA,NA,NA,NA,Scarborough North (23),Scarborough,3799489,"c(-79.2772562802889, 43.8069196445835)",-79.2772562802889,43.8069196445835,"c(-79.2772562802889, 43.8069196445835)"
77,64,FIRE STATION 346 CNE,90 QUEBEC ST,13497616,1460475,30060516,REGULAR,90,Quebec St,NA,Fire Station,"Structure, Structure Entrance",159995,Fire Station 346,NA,NA,NA,NA,Spadina-Fort York (10),former Toronto,3800221,"c(-79.4213297269953, 43.6336769840123)",-79.4213297269953,43.6336769840123,"c(-79.4213297269953, 43.6336769840123)"
78,57,FIRE STATION 334 HARBOURFRONT,339 QUEENS QUAY  W,14069050,160699,10223459,REGULAR,339,Queens Quay W,NA,Fire/Ambulance Stations,"Land, Structure, Structure Entrance",NA,"Hto Park,Maple Leaf Quay",NA,NA,NA,NA,Spadina-Fort York (10),former Toronto,4061713,"c(-79.388613016358, 43.6376903109341)",-79.388613016358,43.6376903109341,"c(-79.388613016358, 43.6376903109341)"
79,51,FIRE STATION 324,840 GERRARD ST E,808592,240689,14024937,REGULAR,840,Gerrard St E,NA,Fire Station,"Land, Structure, Structure Entrance",NA,Fire Station 324,NA,NA,NA,NA,Toronto-Danforth (14),former Toronto,4135973,"c(-79.3435181858772, 43.6677666816198)",-79.3435181858772,43.6677666816198,"c(-79.3435181858772, 43.6677666816198)"
80,16,FIRE STATION 141,4100 KEELE ST,30013624,1494773,30020840,REGULAR,4100,Keele St,NA,Fire/Ambulance Stations,"Land, Structure, Structure Entrance",NA,Fire Station 141,NA,NA,NA,NA,Humber River-Black Creek (7),North York,4149403,"c(-79.4927235946077, 43.7668215104353)",-79.4927235946077,43.7668215104353,"c(-79.4927235946077, 43.7668215104353)"
81,45,FIRE STATION 313,441 BLOOR ST E,14120199,247686,1141663,REGULAR,441,Bloor St E,NA,Fire Station,"Land, Structure, Structure Entrance",NA,Fire Station 313,NA,NA,NA,NA,Toronto Centre (13),former Toronto,4164722,"c(-79.3755640527746, 43.6720950557577)",-79.3755640527746,43.6720950557577,"c(-79.3755640527746, 43.6720950557577)"
82,58,FIRE STATION 335,235 CIBOLA AVE,14076406,183734,30086097,REGULAR,235,Cibola Ave,NA,Fire/Ambulance Stations,"Land, Structure, Structure Entrance",NA,"Fire Station 335, Ambulance Station 59",NA,NA,NA,NA,Spadina-Fort York (10),former Toronto,4173463,"c(-79.3590745052274, 43.6254007460108)",-79.3590745052274,43.6254007460108,"c(-79.3590745052274, 43.6254007460108)"
83,63,FIRE STATION 345,1287 DUFFERIN ST,10363761,137248,30101053,REGULAR,1287,Dufferin St,NA,Unknown,"Land, Structure, Structure Entrance",NA,NA,NA,NA,NA,NA,Davenport (9),former Toronto,4256601,"c(-79.4381526808916, 43.6674011279628)",-79.4381526808916,43.6674011279628,"c(-79.4381526808916, 43.6674011279628)"
84,15,FIRE STATION 135,325 CHAPLIN CRES,8168331,104081,8166572,REGULAR,325,Chaplin Cres,NA,Unknown,"Land, Structure, Structure Entrance",NA,Fire Station 135,NA,NA,NA,NA,Eglinton-Lawrence (8),former Toronto,4271268,"c(-79.4187941157764, 43.7031244599412)",-79.4187941157764,43.7031244599412,"c(-79.4187941157764, 43.7031244599412)"
